STARLINK-33973          
1 63894U 25095E   26165.20694619  .00016923  00000+0  62296-3 0  9996
2 63894  43.0126 350.7356 0000627 148.7823 211.3066 15.27587207 62556
STARLINK-34119          
1 63895U 25095F   26164.79934527  .00021096  00000+0  77397-3 0  9990
2 63895  42.9991 353.6917 0001567 285.3750  74.6928 15.27578271 62481
STARLINK-34143          
1 63896U 25095G   26165.23134130  .00019919  00000+0  73107-3 0  9999
2 63896  43.0066 350.9136 0003763 264.7100  95.3323 15.27590860 62555
STARLINK-33957          
1 63897U 25095H   26164.80320075  .00020982  00000+0  76936-3 0  9992
2 63897  43.0009 353.7234 0004631 276.4913  83.5411 15.27593550 62477
STARLINK-34120          
1 63898U 25095J   26165.20308355  .00025163  00000+0  92106-3 0  9998
2 63898  42.9991 350.6977 0000360 245.1206 114.9608 15.27570832 62553
STARLINK-34134          
1 63899U 25095K   26165.24678431  .00017128  00000+0  63027-3 0  9990
2 63899  43.0085 351.0322 0002374 275.1610  84.8971 15.27590853 62551
STARLINK-34118          
1 63900U 25095L   26164.79549128  .00020031  00000+0  73546-3 0  9996
2 63900  43.0000 353.6625 0001521 258.1407 101.9275 15.27579878 62487
STARLINK-34125          
1 63901U 25095M   26165.23905304  .00017130  00000+0  63083-3 0  9990
2 63901  43.0037 350.9717 0002770 260.6666  99.3872 15.27565752 62548
STARLINK-33955          
1 63902U 25095N   26165.20949982  .00026260  00000+0  95981-3 0  9994
2 63902  42.9948 350.7448 0002544 275.0782  84.9779 15.27598599 62546
STARLINK-34097          
1 63903U 25095P   26165.22877490  .00017887  00000+0  65762-3 0  9990
2 63903  42.9984 350.8933 0003192 263.4292  96.6196 15.27593909 62547
STARLINK-34092          
1 63904U 25095Q   26164.80063122  .00019085  00000+0  70105-3 0  9992
2 63904  43.0044 353.7039 0000322 209.1337 150.9497 15.27589732 62474
STARLINK-34114          
1 63905U 25095R   26164.80834444  .00030622  00000+0  11172-2 0  9994
2 63905  43.0055 353.7665 0000323 122.0677 238.0206 15.27595611 62472
STARLINK-33770          
1 63906U 25095S   26165.21850551  .00015839  00000+0  58368-3 0  9990
2 63906  43.0104 350.8097 0000531  21.3361 338.7513 15.27590637 62547
STARLINK-34106          
1 63907U 25095T   26165.21464257  .00023058  00000+0  84452-3 0  9990
2 63907  42.9997 350.7796 0002036 265.4533  94.6086 15.27590082 62542
STARLINK-34083          
1 63908U 25095U   26164.80448568  .00020878  00000+0  76579-3 0  9990
2 63908  43.0054 353.7361 0002197 111.7461 248.3625 15.27591983 62471
STARLINK-34066          
1 63909U 25095V   26163.80957129  .00020325  00000+0  74549-3 0  9990
2 63909  43.0006 359.1621 0004601 273.4810  86.5516 15.27599304 62324
STARLINK-34071          
1 63910U 25095W   26164.79677517  .00022155  00000+0  81075-3 0  9996
2 63910  43.0026 353.6729 0000724 180.5689 179.5162 15.27638457 62479
STARLINK-34038          
1 63911U 25095X   26165.24033809  .00019448  00000+0  71411-3 0  9992
2 63911  43.0059 350.9793 0003717 267.5777  92.4649 15.27588063 62544
STARLINK-34031          
1 63912U 25095Y   26165.24420054  .00023689  00000+0  86728-3 0  9994
2 63912  43.0020 351.0080 0002050 270.6514  89.4103 15.27591324 62542
STARLINK-34070          
1 63913U 25095Z   26165.23649663  .00023377  00000+0  85599-3 0  9992
2 63913  43.0038 350.9491 0001054 280.1728  79.9005 15.27593068 62544
STARLINK-34068          
1 63914U 25095AA  26165.22618010 -.00000491  00000+0 -82636-5 0  9999
2 63914  43.0070 350.8679 0002517 279.1373  80.9194 15.27638950 62548
STARLINK-34076          
1 63915U 25095AB  26165.23264136  .00019873  00000+0  72959-3 0  9994
2 63915  43.0022 350.9180 0001045 289.1693  70.9046 15.27587697 62541
STARLINK-33910          
1 63916U 25095AC  26165.21078631  .00025481  00000+0  93175-3 0  9991
2 63916  42.9948 350.7508 0002533 278.4161  81.6403 15.27596562 62540
STARLINK-34075          
1 63917U 25095AD  26164.83003711  .00020800  00000+0  76269-3 0  9991
2 63917  43.0037 353.0528 0001423 268.1824  91.8865 15.27603760 62486
YAOGAN-40 02A           
1 63918U 25096A   26165.30561976  .00000127  00000+0  58731-4 0  9993
2 63918  85.9958 189.2599 0002719  92.1389 268.0105 14.12447487 56169
YAOGAN-40 02B           
1 63919U 25096B   26165.30577271  .00000164  00000+0  78505-4 0  9991
2 63919  85.9951 189.2300 0002336  98.9806 261.1642 14.12447554 56161
YAOGAN-40 02C           
1 63920U 25096C   26165.30569578  .00000158  00000+0  75587-4 0  9994
2 63920  85.9955 188.5066 0002585  90.7496 269.3984 14.12447224 75006
TJS-19                  
1 63924U 25097A   26164.74058086 -.00000266  00000+0  00000+0 0  9997
2 63924   3.2925 317.3828 0002297 240.9676 111.5152  1.00266676  4108
STARLINK-34012          
1 63926U 25098A   26165.05254696  .00004342  00000+0  37125-3 0  9990
2 63926  70.0018  31.6194 0003092 268.0536  92.0269 14.98347442 61025
STARLINK-33956          
1 63927U 25098B   26165.00662907  .00002898  00000+0  25052-3 0  9994
2 63927  70.0023  31.4527 0002833 267.5503  92.5332 14.98336259 60995
