OBJECT_NAME,OBJECT_ID,EPOCH,MEAN_MOTION,ECCENTRICITY,INCLINATION,RA_OF_ASC_NODE,ARG_OF_PERICENTER,MEAN_ANOMALY,EPHEMERIS_TYPE,CLASSIFICATION_TYPE,NORAD_CAT_ID,ELEMENT_SET_NO,REV_AT_EPOCH,BSTAR,MEAN_MOTION_DOT,MEAN_MOTION_DDOT
STARLINK-33973,2025-095E,2026-06-14T04:58:00.150816,15.27587207,.00006273,43.0126,350.7356,148.7823,211.3066,0,U,63894,999,6255,.62295627E-3,.16923E-3,0
STARLINK-34119,2025-095F,2026-06-13T19:11:03.431328,15.27578271,.00015671,42.9991,353.6917,285.3750,74.6928,0,U,63895,999,6248,.77396541E-3,.21096E-3,0
STARLINK-34143,2025-095G,2026-06-14T05:33:07.888320,15.27590860,.00037633,43.0066,350.9136,264.7100,95.3323,0,U,63896,999,6255,.73106678E-3,.19919E-3,0
STARLINK-33957,2025-095H,2026-06-13T19:16:36.544800,15.27593550,.00046315,43.0009,353.7234,276.4913,83.5411,0,U,63897,999,6247,.76935511E-3,.20982E-3,0
STARLINK-34120,2025-095J,2026-06-14T04:52:26.418720,15.27570832,.00003602,42.9991,350.6977,245.1206,114.9608,0,U,63898,999,6255,.92105835E-3,.25163E-3,0
STARLINK-34134,2025-095K,2026-06-14T05:55:22.164384,15.27590853,.00023746,43.0085,351.0322,275.1610,84.8971,0,U,63899,999,6255,.63026757E-3,.17128E-3,0
STARLINK-34118,2025-095L,2026-06-13T19:05:30.446592,15.27579878,.00015212,43.0000,353.6625,258.1407,101.9275,0,U,63900,999,6248,.73546221E-3,.20031E-3,0
STARLINK-34125,2025-095M,2026-06-14T05:44:14.182656,15.27565752,.00027705,43.0037,350.9717,260.6666,99.3872,0,U,63901,999,6254,.63082519E-3,.1713E-3,0
STARLINK-33955,2025-095N,2026-06-14T05:01:40.784448,15.27598599,.00025441,42.9948,350.7448,275.0782,84.9779,0,U,63902,999,6254,.95981167E-3,.2626E-3,0
STARLINK-34097,2025-095P,2026-06-14T05:29:26.151360,15.27593909,.00031926,42.9984,350.8933,263.4292,96.6196,0,U,63903,999,6254,.65761537E-3,.17887E-3,0
STARLINK-34092,2025-095Q,2026-06-13T19:12:54.537408,15.27589732,.00003229,43.0044,353.7039,209.1337,150.9497,0,U,63904,999,6247,.7010546E-3,.19085E-3,0
STARLINK-34114,2025-095R,2026-06-13T19:24:00.959616,15.27595611,.00003238,43.0055,353.7665,122.0677,238.0206,0,U,63905,999,6247,.11171795E-2,.30622E-3,0
STARLINK-33770,2025-095S,2026-06-14T05:14:38.876064,15.27590637,.00005318,43.0104,350.8097,21.3361,338.7513,0,U,63906,999,6254,.58367684E-3,.15839E-3,0
STARLINK-34106,2025-095T,2026-06-14T05:09:05.118048,15.27590082,.00020366,42.9997,350.7796,265.4533,94.6086,0,U,63907,999,6254,.84452463E-3,.23058E-3,0
STARLINK-34083,2025-095U,2026-06-13T19:18:27.562752,15.27591983,.0002197,43.0054,353.7361,111.7461,248.3625,0,U,63908,999,6247,.76579117E-3,.20878E-3,0
STARLINK-34066,2025-095V,2026-06-12T19:25:46.959456,15.27599304,.00046018,43.0006,359.1621,273.4810,86.5516,0,U,63909,999,6232,.74548736E-3,.20325E-3,0
STARLINK-34071,2025-095W,2026-06-13T19:07:21.374688,15.27638457,.00007243,43.0026,353.6729,180.5689,179.5162,0,U,63910,999,6247,.81075496E-3,.22155E-3,0
STARLINK-34038,2025-095X,2026-06-14T05:46:05.210976,15.27588063,.0003717,43.0059,350.9793,267.5777,92.4649,0,U,63911,999,6254,.71411254E-3,.19448E-3,0
STARLINK-34031,2025-095Y,2026-06-14T05:51:38.926656,15.27591324,.00020505,43.0020,351.0080,270.6514,89.4103,0,U,63912,999,6254,.86728286E-3,.23689E-3,0
STARLINK-34070,2025-095Z,2026-06-14T05:40:33.308832,15.27593068,.00010548,43.0038,350.9491,280.1728,79.9005,0,U,63913,999,6254,.8559924E-3,.23377E-3,0
STARLINK-34068,2025-095AA,2026-06-14T05:25:41.960640,15.27638950,.00025172,43.0070,350.8679,279.1373,80.9194,0,U,63914,999,6254,-.8263605E-5,-.491E-5,0
STARLINK-34076,2025-095AB,2026-06-14T05:35:00.213504,15.27587697,.00010459,43.0022,350.9180,289.1693,70.9046,0,U,63915,999,6254,.72959223E-3,.19873E-3,0
STARLINK-33910,2025-095AC,2026-06-14T05:03:31.937184,15.27596562,.00025336,42.9948,350.7508,278.4161,81.6403,0,U,63916,999,6254,.93175157E-3,.25481E-3,0
STARLINK-34075,2025-095AD,2026-06-13T19:55:15.206304,15.27603760,.00014235,43.0037,353.0528,268.1824,91.8865,0,U,63917,999,6248,.76268579E-3,.208E-3,0
YAOGAN-40 02A,2025-096A,2026-06-14T07:20:05.547264,14.12447487,.00027191,85.9958,189.2599,92.1389,268.0105,0,U,63918,999,5616,.58730974E-4,.127E-5,0
YAOGAN-40 02B,2025-096B,2026-06-14T07:20:18.762144,14.12447554,.00023369,85.9951,189.2300,98.9806,261.1642,0,U,63919,999,5616,.78504504E-4,.164E-5,0
YAOGAN-40 02C,2025-096C,2026-06-14T07:20:12.115392,14.12447224,.0002585,85.9955,188.5066,90.7496,269.3984,0,U,63920,999,7500,.7558713E-4,.158E-5,0
TJS-19,2025-097A,2026-06-13T17:46:26.186304,1.00266676,.0002297,3.2925,317.3828,240.9676,111.5152,0,U,63924,999,410,0,-.266E-5,0
STARLINK-34012,2025-098A,2026-06-14T01:15:40.057344,14.98347442,.00030924,70.0018,31.6194,268.0536,92.0269,0,U,63926,999,6102,.37125371E-3,.4342E-4,0
STARLINK-33956,2025-098B,2026-06-14T00:09:32.751648,14.98336259,.00028332,70.0023,31.4527,267.5503,92.5332,0,U,63927,999,6099,.25052496E-3,.2898E-4,0
